ONEWEB-0545             
1 54647U 22166F   25261.06172459  .00000158  00000+0  35135-3 0  9996
2 54647  87.9200 298.2933 0001990  78.7977 281.3381 13.21823350135557
ONEWEB-0580             
1 54648U 22166G   25261.03493768  .00000123  00000+0  26622-3 0  9996
2 54648  87.9201 298.2966 0002179  86.0023 274.1360 13.21824911135594
ONEWEB-0582             
1 54649U 22166H   25261.07750653  .00000055  00000+0  10071-3 0  9995
2 54649  87.9194 298.2821 0002229  82.0750 278.0637 13.21823217135571
ONEWEB-0583             
1 54650U 22166J   25261.08854842  .00000041  00000+0  67757-4 0  9992
2 54650  87.9200 298.3050 0001938  90.0407 270.0949 13.21823849135580
ONEWEB-0584             
1 54651U 22166K   25261.10904753  .00000105  00000+0  22303-3 0  9991
2 54651  87.9203 298.2848 0002243  86.9632 273.1759 13.21824754135570
ONEWEB-0585             
1 54652U 22166L   25261.05858047 -.00000156  00000+0 -40879-3 0  9996
2 54652  87.9202 298.2817 0001886  98.2548 261.8800 13.21824385135571
ONEWEB-0586             
1 54653U 22166M   25261.07120650  .00000051  00000+0  91353-4 0  9997
2 54653  87.9203 298.3038 0001981  88.8729 271.2632 13.21824125135571
ONEWEB-0587             
1 54654U 22166N   25260.62650026  .00000080  00000+0  16324-3 0  9999
2 54654  87.9207 298.3406 0001886 105.9539 254.1803 13.21825097135679
